OBJECT_NAME,OBJECT_ID,EPOCH,MEAN_MOTION,ECCENTRICITY,INCLINATION,RA_OF_ASC_NODE,ARG_OF_PERICENTER,MEAN_ANOMALY,EPHEMERIS_TYPE,CLASSIFICATION_TYPE,NORAD_CAT_ID,ELEMENT_SET_NO,REV_AT_EPOCH,BSTAR,MEAN_MOTION_DOT,MEAN_MOTION_DDOT
STARLINK-37706,2026-110D,2026-06-13T20:00:01.999008,15.34212690,.0002064,97.2833,1.2525,83.5600,224.1179,0,U,69127,999,511,-.38108E-1,-.1149499E-1,0
STARLINK-37723,2026-110E,2026-06-13T20:00:01.999008,15.34321687,.0002134,97.2840,1.2591,91.9774,230.6545,0,U,69128,999,511,-.43606E-1,-.1322658E-1,0
STARLINK-37720,2026-110F,2026-06-13T19:13:28.603200,15.49227598,.000167,97.2842,1.0081,91.8090,268.3352,0,U,69129,999,507,.88908E-3,.4863E-3,0
STARLINK-37533,2026-110G,2026-06-13T20:00:01.999008,15.36854846,.0001545,97.2842,1.2784,108.6967,257.0434,0,U,69130,999,511,-.12778E+0,-.3980024E-1,0
STARLINK-37530,2026-110H,2026-06-13T20:00:01.999008,15.36524971,.0001737,97.2836,1.2857,63.1432,317.1439,0,U,69131,999,511,-.88896E-1,-.2812328E-1,0
STARLINK-37660,2026-110J,2026-06-13T20:00:01.999008,15.49194255,.0000588,97.2834,1.2159,99.6384,135.0454,0,U,69132,999,511,-.34147E-3,-.18621E-3,0
STARLINK-37633,2026-110K,2026-06-13T20:00:01.999008,15.49125986,.0000919,97.2836,1.2309,102.0018,163.7021,0,U,69133,999,511,.15911E-2,.87217E-3,0
STARLINK-37361,2026-110L,2026-06-13T20:00:01.999008,15.37263574,.0001717,97.2842,1.3073,98.2206,324.8326,0,U,69134,999,511,-.68473E-1,-.2236462E-1,0
STARLINK-37372,2026-110M,2026-06-13T20:19:28.956288,15.49217999,.0001213,97.2831,1.2526,92.4911,267.6479,0,U,69135,999,509,.70654E-3,.38564E-3,0
STARLINK-37531,2026-110N,2026-06-13T20:00:01.999008,15.43017880,.0001545,97.2847,1.3045,98.6508,329.2673,0,U,69136,999,511,-.61153E-1,-.2397039E-1,0
STARLINK-37662,2026-110P,2026-06-13T20:00:01.999008,15.49108613,.0001355,97.2832,1.2416,87.7142,199.0613,0,U,69137,999,511,.19136E-2,.105087E-2,0
STARLINK-37658,2026-110Q,2026-06-13T17:58:37.496640,15.49197815,.0000887,97.2833,1.0805,85.9565,274.1787,0,U,69138,999,507,.52004E-3,.28303E-3,0
STARLINK-37659,2026-110R,2026-06-13T19:42:43.026048,15.49220372,.0001491,97.2840,1.1350,84.2615,275.8807,0,U,69139,999,508,.73907E-3,.40356E-3,0
STARLINK-37653,2026-110S,2026-06-13T19:46:16.052160,15.49227224,.0001243,97.2846,1.1318,61.6555,298.4822,0,U,69140,999,508,.8536E-3,.46672E-3,0
STARLINK-37654,2026-110T,2026-06-13T20:16:33.458016,15.49166974,.0001563,97.2832,1.2559,83.2694,276.8735,0,U,69141,999,509,.62099E-3,.33803E-3,0
STARLINK-37655,2026-110U,2026-06-13T20:00:01.999008,15.49702607,.000129,97.2838,1.2897,69.2770,338.2539,0,U,69142,999,511,-.36526E-1,-.1796054E-1,0
STARLINK-37636,2026-110V,2026-06-13T20:00:01.999008,15.40521646,.0001953,97.2836,1.3554,76.5089,110.1617,0,U,69143,999,511,-.67551E-1,-.2431353E-1,0
STARLINK-37638,2026-110W,2026-06-13T20:00:01.999008,15.40670972,.0001966,97.2838,1.3614,83.4817,117.6976,0,U,69144,999,511,-.68135E-1,-.2460828E-1,0
STARLINK-37657,2026-110X,2026-06-13T20:16:53.152032,15.49134726,.0002072,97.2831,1.2556,96.9280,263.2207,0,U,69145,999,509,.24313E-5,.41E-6,0
STARLINK-37639,2026-110Y,2026-06-13T20:00:01.999008,15.41604660,.0002061,97.2840,1.3729,84.7519,141.5360,0,U,69146,999,516,-.65204E-1,-.24331E-1,0
STARLINK-37661,2026-110Z,2026-06-13T19:14:43.815264,15.49194022,.0001562,97.2839,1.1609,90.2554,269.8876,0,U,69147,999,508,.35401E-3,.19214E-3,0
STARLINK-37395,2026-111A,2026-06-13T20:00:01.999008,15.71396269,.0001245,53.1595,168.5509,97.6381,89.2210,0,U,69148,999,501,-.21641E-1,-.2466768E-1,0
STARLINK-37346,2026-111B,2026-06-13T20:00:01.999008,15.55921708,.0000887,53.1594,168.8812,95.4433,288.8613,0,U,69149,999,501,-.40305E-1,-.2475488E-1,0
STARLINK-37332,2026-111C,2026-06-13T20:00:01.999008,15.49255204,.0001241,53.1588,169.1782,97.3118,140.4460,0,U,69150,999,501,.1383E-2,.77087E-3,0
STARLINK-37297,2026-111D,2026-06-13T20:00:01.999008,15.73275921,.0001142,53.1591,168.5056,101.6925,107.2703,0,U,69151,999,501,-.20973E-1,-.2575402E-1,0
STARLINK-37317,2026-111E,2026-06-13T20:00:01.999008,15.77460713,.0001193,53.1583,168.4380,106.9211,135.4200,0,U,69152,999,501,-.16767E-1,-.2435594E-1,0
STARLINK-37374,2026-111F,2026-06-13T20:00:01.999008,15.49288841,.0000832,53.1594,169.3549,120.7247,29.3070,0,U,69153,999,501,.1501E-2,.83871E-3,0
STARLINK-37235,2026-111G,2026-06-13T20:00:01.999008,15.49254726,.0001005,53.1584,169.5975,99.2028,291.5522,0,U,69154,999,501,.13961E-2,.77825E-3,0
STARLINK-37329,2026-111H,2026-06-13T20:00:01.999008,15.77641470,.0001113,53.1584,168.4422,111.4023,128.8979,0,U,69155,999,501,-.17165E-1,-.2501695E-1,0
STARLINK-37345,2026-111J,2026-06-13T17:25:25.604256,15.80598709,.0004616,53.1568,168.9593,42.2606,317.8771,0,U,69156,999,371,.5034E-3,.98593E-3,0
