STARLINK-37706          
1 69127U 26110D   26164.83335647 -.01149499  00000+0 -38108-1 0  9992
2 69127  97.2833   1.2525 0002064  83.5600 224.1179 15.34212690  5114
STARLINK-37723          
1 69128U 26110E   26164.83335647 -.01322658  00000+0 -43606-1 0  9992
2 69128  97.2840   1.2591 0002134  91.9774 230.6545 15.34321687  5115
STARLINK-37720          
1 69129U 26110F   26164.80102550  .00048630  00000+0  88908-3 0  9993
2 69129  97.2842   1.0081 0001670  91.8090 268.3352 15.49227598  5075
STARLINK-37533          
1 69130U 26110G   26164.83335647 -.03980024  00000+0 -12778+0 0  9998
2 69130  97.2842   1.2784 0001545 108.6967 257.0434 15.36854846  5119
STARLINK-37530          
1 69131U 26110H   26164.83335647 -.02812328  00000+0 -88896-1 0  9995
2 69131  97.2836   1.2857 0001737  63.1432 317.1439 15.36524971  5115
STARLINK-37660          
1 69132U 26110J   26164.83335647 -.00018621  00000+0 -34147-3 0  9990
2 69132  97.2834   1.2159 0000588  99.6384 135.0454 15.49194255  5118
STARLINK-37633          
1 69133U 26110K   26164.83335647  .00087217  00000+0  15911-2 0  9993
2 69133  97.2836   1.2309 0000919 102.0018 163.7021 15.49125986  5112
STARLINK-37361          
1 69134U 26110L   26164.83335647 -.02236462  00000+0 -68473-1 0  9996
2 69134  97.2842   1.3073 0001717  98.2206 324.8326 15.37263574  5112
STARLINK-37372          
1 69135U 26110M   26164.84686292  .00038564  00000+0  70654-3 0  9998
2 69135  97.2831   1.2526 0001213  92.4911 267.6479 15.49217999  5096
STARLINK-37531          
1 69136U 26110N   26164.83335647 -.02397039  00000+0 -61153-1 0  9994
2 69136  97.2847   1.3045 0001545  98.6508 329.2673 15.43017880  5114
STARLINK-37662          
1 69137U 26110P   26164.83335647  .00105087  00000+0  19136-2 0  9996
2 69137  97.2832   1.2416 0001355  87.7142 199.0613 15.49108613  5110
STARLINK-37658          
1 69138U 26110Q   26164.74904510  .00028303  00000+0  52004-3 0  9995
2 69138  97.2833   1.0805 0000887  85.9565 274.1787 15.49197815  5074
STARLINK-37659          
1 69139U 26110R   26164.82133132  .00040356  00000+0  73907-3 0  9996
2 69139  97.2840   1.1350 0001491  84.2615 275.8807 15.49220372  5086
STARLINK-37653          
1 69140U 26110S   26164.82379690  .00046672  00000+0  85360-3 0  9992
2 69140  97.2846   1.1318 0001243  61.6555 298.4822 15.49227224  5086
STARLINK-37654          
1 69141U 26110T   26164.84483169  .00033803  00000+0  62099-3 0  9998
2 69141  97.2832   1.2559 0001563  83.2694 276.8735 15.49166974  5097
STARLINK-37655          
1 69142U 26110U   26164.83335647 -.01796054  00000+0 -36526-1 0  9996
2 69142  97.2838   1.2897 0001290  69.2770 338.2539 15.49702607  5112
STARLINK-37636          
1 69143U 26110V   26164.83335647 -.02431353  00000+0 -67551-1 0  9998
2 69143  97.2836   1.3554 0001953  76.5089 110.1617 15.40521646  5119
STARLINK-37638          
1 69144U 26110W   26164.83335647 -.02460828  00000+0 -68135-1 0  9997
2 69144  97.2838   1.3614 0001966  83.4817 117.6976 15.40670972  5116
STARLINK-37657          
1 69145U 26110X   26164.84505963  .00000041  00000+0  24313-5 0  9996
2 69145  97.2831   1.2556 0002072  96.9280 263.2207 15.49134726  5099
STARLINK-37639          
1 69146U 26110Y   26164.83335647 -.02433100  00000+0 -65204-1 0  9996
2 69146  97.2840   1.3729 0002061  84.7519 141.5360 15.41604660  5168
STARLINK-37661          
1 69147U 26110Z   26164.80189601  .00019214  00000+0  35401-3 0  9991
2 69147  97.2839   1.1609 0001562  90.2554 269.8876 15.49194022  5089
STARLINK-37395          
1 69148U 26111A   26164.83335647 -.02466768  00000+0 -21641-1 0  9992
2 69148  53.1595 168.5509 0001245  97.6381  89.2210 15.71396269  5015
STARLINK-37346          
1 69149U 26111B   26164.83335647 -.02475488  00000+0 -40305-1 0  9990
2 69149  53.1594 168.8812 0000887  95.4433 288.8613 15.55921708  5018
STARLINK-37332          
1 69150U 26111C   26164.83335647  .00077087  00000+0  13830-2 0  9995
2 69150  53.1588 169.1782 0001241  97.3118 140.4460 15.49255204  5016
STARLINK-37297          
1 69151U 26111D   26164.83335647 -.02575402  00000+0 -20973-1 0  9999
2 69151  53.1591 168.5056 0001142 101.6925 107.2703 15.73275921  5019
STARLINK-37317          
1 69152U 26111E   26164.83335647 -.02435594  00000+0 -16767-1 0  9993
2 69152  53.1583 168.4380 0001193 106.9211 135.4200 15.77460713  5016
STARLINK-37374          
1 69153U 26111F   26164.83335647  .00083871  00000+0  15010-2 0  9998
2 69153  53.1594 169.3549 0000832 120.7247  29.3070 15.49288841  5013
STARLINK-37235          
1 69154U 26111G   26164.83335647  .00077825  00000+0  13961-2 0  9994
2 69154  53.1584 169.5975 0001005  99.2028 291.5522 15.49254726  5018
STARLINK-37329          
1 69155U 26111H   26164.83335647 -.02501695  00000+0 -17165-1 0  9995
2 69155  53.1584 168.4422 0001113 111.4023 128.8979 15.77641470  5011
STARLINK-37345          
1 69156U 26111J   26164.72599079  .00098593  00000+0  50340-3 0  9993
2 69156  53.1568 168.9593 0004616  42.2606 317.8771 15.80598709  3712
